{
  "norad_id": 66853,
  "name": "STARLINK-35986",
  "history": [
    {
      "epoch": "2026-03-28T16:34:07.100544",
      "apogee_km": 483.539097576072,
      "perigee_km": 482.36516522568854,
      "latitude_deg": -6.573944363812979,
      "longitude_deg": -148.4254438399803,
      "semi_major_axis_km": 6861.0891314008795,
      "eccentricity": 8.555e-05,
      "inclination_deg": 42.9986,
      "raan_deg": 235.9768,
      "arg_perigee_deg": 250.3905,
      "mean_anomaly_deg": 109.6854,
      "mean_motion_rev_day": 15.27612383
    }
  ]
}