{"fetched_at":"2026-03-29T16:36:15Z","count":15609,"tles":[{"name":"STARLINK-35986","line1":"1 66853U 25281F   26087.69035996  .00027421  00000+0  10013-2 0  9998","line2":"2 66853  42.9986 235.9768 0000855 250.3905 109.6854 15.27612383 19090","category":"Starlink"}]}